{
  "type": "FeatureCollection",
  "features": [
    {
      "type": "Feature",
      "properties": {
        "norad_id": 37278,
        "name": "COSMOS 2251 DEB",
        "group": "cosmos-2251-debris",
        "lat": 72.99597341926362,
        "lon": 71.83844194597906,
        "alt_km": 859.8860694075383,
        "timestamp": "2025-12-06T22:38:43.126605+00:00",
        "meta_object_name": "COSMOS 2251 DEB",
        "meta_object_id": "1993-036BHS",
        "meta_epoch": "2025-12-04T09:26:36.152736",
        "meta_mean_motion": 14.15029915,
        "meta_eccentricity": 0.029998,
        "meta_inclination": 73.7864,
        "meta_ra_of_asc_node": 4.3592,
        "meta_arg_of_pericenter": 188.2556,
        "meta_mean_anomaly": 234.4903,
        "meta_ephemeris_type": 0,
        "meta_classification_type": "U",
        "meta_norad_cat_id": 37278,
        "meta_element_set_no": 999,
        "meta_rev_at_epoch": 63711,
        "meta_bstar": 0.0023061,
        "meta_mean_motion_dot": 6.884e-05,
        "meta_mean_motion_ddot": 0,
        "tle_line1": "1 37278U 93036BHS 25338.39347399  .00006884  00000+0  23061-2 0  9995",
        "tle_line2": "2 37278  73.7864   4.3592 0299980 188.2556 234.4903 14.15029915637119"
      },
      "geometry": {
        "type": "Point",
        "coordinates": [
          71.83844194597906,
          72.99597341926362
        ]
      }
    },
    {
      "type": "Feature",
      "properties": {
        "norad_id": 37280,
        "name": "COSMOS 2251 DEB",
        "group": "cosmos-2251-debris",
        "lat": -46.982405070956005,
        "lon": 49.561774167329204,
        "alt_km": 870.9002849704084,
        "timestamp": "2025-12-06T22:38:43.126616+00:00",
        "meta_object_name": "COSMOS 2251 DEB",
        "meta_object_id": "1993-036BHU",
        "meta_epoch": "2025-12-05T23:11:54.105216",
        "meta_mean_motion": 14.19236446,
        "meta_eccentricity": 0.01316124,
        "meta_inclination": 74.0322,
        "meta_ra_of_asc_node": 69.1767,
        "meta_arg_of_pericenter": 199.164,
        "meta_mean_anomaly": 160.4529,
        "meta_ephemeris_type": 0,
        "meta_classification_type": "U",
        "meta_norad_cat_id": 37280,
        "meta_element_set_no": 999,
        "meta_rev_at_epoch": 57227,
        "meta_bstar": 0.0030955091,
        "meta_mean_motion_dot": 7.056e-05,
        "meta_mean_motion_ddot": 0,
        "tle_line1": "1 37280U 93036BHU 25339.96659844  .00007056  00000+0  30955-2 0  9995",
        "tle_line2": "2 37280  74.0322  69.1767 0131612 199.1640 160.4529 14.19236446572270"
      },
      "geometry": {
        "type": "Point",
        "coordinates": [
          49.561774167329204,
          -46.982405070956005
        ]
      }
    },
    {
      "type": "Feature",
      "properties": {
        "norad_id": 37284,
        "name": "COSMOS 2251 DEB",
        "group": "cosmos-2251-debris",
        "lat": 73.87497924307907,
        "lon": -110.41504835791575,
        "alt_km": 912.9329674620631,
        "timestamp": "2025-12-06T22:38:43.126626+00:00",
        "meta_object_name": "COSMOS 2251 DEB",
        "meta_object_id": "1993-036BHY",
        "meta_epoch": "2025-12-05T19:06:47.225088",
        "meta_mean_motion": 14.12657303,
        "meta_eccentricity": 0.01604408,
        "meta_inclination": 74.0121,
        "meta_ra_of_asc_node": 169.0185,
        "meta_arg_of_pericenter": 322.3384,
        "meta_mean_anomaly": 52.3924,
        "meta_ephemeris_type": 0,
        "meta_classification_type": "U",
        "meta_norad_cat_id": 37284,
        "meta_element_set_no": 999,
        "meta_rev_at_epoch": 59077,
        "meta_bstar": 0.001984473,
        "meta_mean_motion_dot": 4.13e-05,
        "meta_mean_motion_ddot": 0,
        "tle_line1": "1 37284U 93036BHY 25339.79637992  .00004130  00000+0  19845-2 0  9995",
        "tle_line2": "2 37284  74.0121 169.0185 0160440 322.3384  52.3924 14.12657303590776"
      },
      "geometry": {
        "type": "Point",
        "coordinates": [
          -110.41504835791575,
          73.87497924307907
        ]
      }
    },
    {
      "type": "Feature",
      "properties": {
        "norad_id": 37292,
        "name": "COSMOS 2251 DEB",
        "group": "cosmos-2251-debris",
        "lat": 41.43750552381493,
        "lon": 74.35011663744902,
        "alt_km": 735.8315625991372,
        "timestamp": "2025-12-06T22:38:43.126636+00:00",
        "meta_object_name": "COSMOS 2251 DEB",
        "meta_object_id": "1993-036BJG",
        "meta_epoch": "2025-12-02T14:04:30.366912",
        "meta_mean_motion": 14.03226454,
        "meta_eccentricity": 0.02102512,
        "meta_inclination": 74.129,
        "meta_ra_of_asc_node": 67.3453,
        "meta_arg_of_pericenter": 73.1105,
        "meta_mean_anomaly": 289.2966,
        "meta_ephemeris_type": 0,
        "meta_classification_type": "U",
        "meta_norad_cat_id": 37292,
        "meta_element_set_no": 999,
        "meta_rev_at_epoch": 59706,
        "meta_bstar": 0.0022453288,
        "meta_mean_motion_dot": 4.236e-05,
        "meta_mean_motion_ddot": 0,
        "tle_line1": "1 37292U 93036BJG 25336.58646258  .00004236  00000+0  22453-2 0  9999",
        "tle_line2": "2 37292  74.1290  67.3453 0210251  73.1105 289.2966 14.03226454597064"
      },
      "geometry": {
        "type": "Point",
        "coordinates": [
          74.35011663744902,
          41.43750552381493
        ]
      }
    },
    {
      "type": "Feature",
      "properties": {
        "norad_id": 37295,
        "name": "COSMOS 2251 DEB",
        "group": "cosmos-2251-debris",
        "lat": 66.06583948914775,
        "lon": 72.54616352960454,
        "alt_km": 639.0252997616726,
        "timestamp": "2025-12-06T22:38:43.126646+00:00",
        "meta_object_name": "COSMOS 2251 DEB",
        "meta_object_id": "1993-036BJK",
        "meta_epoch": "2025-12-06T07:24:27.976032",
        "meta_mean_motion": 14.65177663,
        "meta_eccentricity": 0.00436801,
        "meta_inclination": 74.0075,
        "meta_ra_of_asc_node": 294.0211,
        "meta_arg_of_pericenter": 115.2247,
        "meta_mean_anomaly": 245.346,
        "meta_ephemeris_type": 0,
        "meta_classification_type": "U",
        "meta_norad_cat_id": 37295,
        "meta_element_set_no": 999,
        "meta_rev_at_epoch": 82210,
        "meta_bstar": 0.0010871987,
        "meta_mean_motion_dot": 5.905e-05,
        "meta_mean_motion_ddot": 0,
        "tle_line1": "1 37295U 93036BJK 25340.30865713  .00005905  00000+0  10872-2 0  9992",
        "tle_line2": "2 37295  74.0075 294.0211 0043680 115.2247 245.3460 14.65177663822106"
      },
      "geometry": {
        "type": "Point",
        "coordinates": [
          72.54616352960454,
          66.06583948914775
        ]
      }
    },
    {
      "type": "Feature",
      "properties": {
        "norad_id": 37305,
        "name": "COSMOS 2251 DEB",
        "group": "cosmos-2251-debris",
        "lat": 42.0686786477361,
        "lon": 106.13126076600955,
        "alt_km": 789.0363515648414,
        "timestamp": "2025-12-06T22:38:43.126656+00:00",
        "meta_object_name": "COSMOS 2251 DEB",
        "meta_object_id": "1993-036BJV",
        "meta_epoch": "2025-12-01T04:54:57.845088",
        "meta_mean_motion": 14.36058989,
        "meta_eccentricity": 0.0050534,
        "meta_inclination": 73.8694,
        "meta_ra_of_asc_node": 311.9126,
        "meta_arg_of_pericenter": 273.9871,
        "meta_mean_anomaly": 85.5504,
        "meta_ephemeris_type": 0,
        "meta_classification_type": "U",
        "meta_norad_cat_id": 37305,
        "meta_element_set_no": 999,
        "meta_rev_at_epoch": 66701,
        "meta_bstar": 0.00088749,
        "meta_mean_motion_dot": 2.593e-05,
        "meta_mean_motion_ddot": 0,
        "tle_line1": "1 37305U 93036BJV 25335.20483617  .00002593  00000+0  88749-3 0  9995",
        "tle_line2": "2 37305  73.8694 311.9126 0050534 273.9871  85.5504 14.36058989667014"
      },
      "geometry": {
        "type": "Point",
        "coordinates": [
          106.13126076600955,
          42.0686786477361
        ]
      }
    },
    {
      "type": "Feature",
      "properties": {
        "norad_id": 37312,
        "name": "COSMOS 2251 DEB",
        "group": "cosmos-2251-debris",
        "lat": -28.29314762815026,
        "lon": -153.86449990857244,
        "alt_km": 731.2864899928372,
        "timestamp": "2025-12-06T22:38:43.126666+00:00",
        "meta_object_name": "COSMOS 2251 DEB",
        "meta_object_id": "1993-036BKC",
        "meta_epoch": "2025-12-03T01:48:10.090656",
        "meta_mean_motion": 14.46074055,
        "meta_eccentricity": 0.00181668,
        "meta_inclination": 74.0321,
        "meta_ra_of_asc_node": 222.2189,
        "meta_arg_of_pericenter": 326.4091,
        "meta_mean_anomaly": 33.5914,
        "meta_ephemeris_type": 0,
        "meta_classification_type": "U",
        "meta_norad_cat_id": 37312,
        "meta_element_set_no": 999,
        "meta_rev_at_epoch": 86024,
        "meta_bstar": 0.00063141036,
        "meta_mean_motion_dot": 2.231e-05,
        "meta_mean_motion_ddot": 0,
        "tle_line1": "1 37312U 93036BKC 25337.07511679  .00002231  00000+0  63141-3 0  9998",
        "tle_line2": "2 37312  74.0321 222.2189 0018166 326.4091  33.5914 14.46074055860249"
      },
      "geometry": {
        "type": "Point",
        "coordinates": [
          -153.86449990857244,
          -28.29314762815026
        ]
      }
    }
  ]
}